[{"OBJECT_NAME":"STARLINK-30128","OBJECT_ID":"2023-079K","EPOCH":"2026-03-09T22:00:01.999584","MEAN_MOTION":15.1645424,"ECCENTRICITY":0.00012166,"INCLINATION":42.9995,"RA_OF_ASC_NODE":79.6064,"ARG_OF_PERICENTER":264.9817,"MEAN_ANOMALY":319.4479,"EPHEMERIS_TYPE":0,"CLASSIFICATION_TYPE":"U","NORAD_CAT_ID":56832,"ELEMENT_SET_NO":999,"REV_AT_EPOCH":572,"BSTAR":0.060668261,"MEAN_MOTION_DOT":0.0130306,"MEAN_MOTION_DDOT":0},{"OBJECT_NAME":"IRIDE FM2","OBJECT_ID":"2025-276AG","EPOCH":"2026-03-09T22:42:46.282464","MEAN_MOTION":15.18971526,"ECCENTRICITY":0.00034688,"INCLINATION":97.4252,"RA_OF_ASC_NODE":144.1705,"ARG_OF_PERICENTER":20.3269,"MEAN_ANOMALY":339.8103,"EPHEMERIS_TYPE":0,"CLASSIFICATION_TYPE":"U","NORAD_CAT_ID":66696,"ELEMENT_SET_NO":999,"REV_AT_EPOCH":1535,"BSTAR":0.00057867113,"MEAN_MOTION_DOT":0.00012043,"MEAN_MOTION_DDOT":0}]
